NORAD_CAT_ID,OBJECT_NAME,OBJECT_TYPE,EPOCH,MEAN_MOTION,ECCENTRICITY,INCLINATION,RA_OF_ASC_NODE,ARG_OF_PERICENTER,MEAN_ANOMALY,BSTAR,MEAN_MOTION_DOT,MEAN_MOTION_DDOT,TLE_LINE0,TLE_LINE1,TLE_LINE2,SEMIMAJOR_AXIS,PERIOD,APOGEE,PERIGEE,DECAYED
54186.0,STARLINK-5194,PAYLOAD,2024-04-11 02:32:39,15.08840564,0.0001602,53.2191,245.892,83.9337,276.1838,6.9781e-05,8.23e-06,0.0,0 STARLINK-5194,1 54186U 22141AF  24102.10601477  .00000823  00000-0  69781-4 0  9997,2 54186  53.2191 245.8920 0001602  83.9337 276.1838 15.08840564 80913,6917.879,95.438,540.852,538.635,0.0
54186.0,STARLINK-5194,PAYLOAD,2024-04-11 08:54:13,15.08822889,0.0001811,53.2239,244.7049,89.2699,270.8501,0.00026219,3.885e-05,0.0,0 STARLINK-5194,1 54186U 22141AF  24102.37098480  .00003885  00000-0  26219-3 0  9999,2 54186  53.2239 244.7049 0001811  89.2699 270.8501 15.08822889 80950,6917.933,95.439,541.051,538.545,0.0
54186.0,STARLINK-5194,PAYLOAD,2024-04-11 13:40:22,15.08834755,0.0001976,53.2249,243.813,87.8149,272.307,1.2277e-06,-2.69e-06,0.0,0 STARLINK-5194,1 54186U 22141AF  24102.56970328 -.00000269  00000-0  12277-5 0  9995,2 54186  53.2249 243.8130 0001976  87.8149 272.3070 15.08834755 80759,6917.896,95.438,541.128,538.394,0.0
54186.0,STARLINK-5194,PAYLOAD,2024-04-11 15:15:45,15.0883271,0.0001872,53.2213,243.514,85.6433,274.4773,1.5575e-05,-4e-07,0.0,0 STARLINK-5194,1 54186U 22141AF  24102.63594371 -.00000040  00000-0  15575-4 0  9993,2 54186  53.2213 243.5140 0001872  85.6433 274.4773 15.08832710 80768,6917.903,95.438,541.063,538.473,0.0
54186.0,STARLINK-5194,PAYLOAD,2024-04-12 02:23:27,15.08837886,0.0001704,53.2196,241.4314,77.9784,282.1399,1.7969e-05,-2e-08,0.0,0 STARLINK-5194,1 54186U 22141AF  24103.09962116 -.00000002  00000-0  17969-4 0  9997,2 54186  53.2196 241.4314 0001704  77.9784 282.1399 15.08837886 81068,6917.887,95.438,540.931,538.573,0.0
54186.0,STARLINK-5194,PAYLOAD,2024-04-12 13:31:09,15.08715253,0.0002611,53.2201,239.3501,71.0772,289.0503,0.0017997,0.00028373,0.0,0 STARLINK-5194,1 54186U 22141AF  24103.56330763  .00028373  00000-0  17997-2 0  9995,2 54186  53.2201 239.3501 0002611  71.0772 289.0503 15.08715253 80907,6918.262,95.445,541.933,538.32,0.0
54186.0,STARLINK-5194,PAYLOAD,2024-04-12 15:06:32,15.08825537,0.0002012,53.2207,239.0527,77.3785,282.7432,0.00035971,5.439e-05,0.0,0 STARLINK-5194,1 54186U 22141AF  24103.62953786  .00005439  00000-0  35971-3 0  9999,2 54186  53.2207 239.0527 0002012  77.3785 282.7432 15.08825537 80915,6917.925,95.438,541.181,538.398,0.0
54186.0,STARLINK-5194,PAYLOAD,2024-04-13 13:21:56,15.08833308,0.000155,53.2176,234.8895,73.0817,287.0345,0.0001089,1.445e-05,0.0,0 STARLINK-5194,1 54186U 22141AF  24104.55690434  .00001445  00000-0  10890-3 0  9996,2 54186  53.2176 234.8895 0001550  73.0817 287.0345 15.08833308 81283,6917.901,95.438,540.838,538.694,0.0
54186.0,STARLINK-5194,PAYLOAD,2024-04-13 14:57:19,15.08836999,0.000148,53.2175,234.592,72.1938,287.9215,9.0914e-05,1.159e-05,0.0,0 STARLINK-5194,1 54186U 22141AF  24104.62314263  .00001159  00000-0  90914-4 0  9995,2 54186  53.2175 234.5920 0001480  72.1938 287.9215 15.08836999 81064,6917.89,95.438,540.778,538.731,0.0
54186.0,STARLINK-5194,PAYLOAD,2024-04-14 11:37:19,15.08845663,0.0001548,53.2172,230.7276,71.0653,289.0507,9.0347e-05,1.15e-05,0.0,0 STARLINK-5194,1 54186U 22141AF  24105.48425793  .00001150  00000-0  90347-4 0  9992,2 54186  53.2172 230.7276 0001548  71.0653 289.0507 15.08845663 81425,6917.863,95.437,540.799,538.657,0.0
54186.0,STARLINK-5194,PAYLOAD,2024-04-14 14:48:06,15.0884671,0.0001635,53.2177,230.1329,76.0655,284.0519,0.00013976,1.937e-05,0.0,0 STARLINK-5194,1 54186U 22141AF  24105.61673626  .00001937  00000-0  13976-3 0  9992,2 54186  53.2177 230.1329 0001635  76.0655 284.0519 15.08846710 81216,6917.86,95.437,540.856,538.594,0.0
54186.0,STARLINK-5194,PAYLOAD,2024-04-15 13:03:30,15.08838554,0.0001583,53.2188,225.9694,96.5229,263.5943,7.3448e-05,8.81e-06,0.0,0 STARLINK-5194,1 54186U 22141AF  24106.54410443  .00000881  00000-0  73448-4 0  9999,2 54186  53.2188 225.9694 0001583  96.5229 263.5943 15.08838554 81581,6917.885,95.438,540.845,538.655,0.0
54186.0,STARLINK-5194,PAYLOAD,2024-04-15 17:49:39,15.08841394,0.0001664,53.2174,225.0757,100.6008,259.5172,0.0001103,1.468e-05,0.0,0 STARLINK-5194,1 54186U 22141AF  24106.74282259  .00001468  00000-0  11030-3 0  9993,2 54186  53.2174 225.0757 0001664 100.6008 259.5172 15.08841394 81382,6917.876,95.437,540.892,538.59,0.0
54186.0,STARLINK-5194,PAYLOAD,2024-04-16 12:54:16,15.08863486,0.0001855,53.2172,221.5079,116.1652,243.9531,0.00030861,4.63e-05,0.0,0 STARLINK-5194,1 54186U 22141AF  24107.53768927  .00004630  00000-0  30861-3 0  9999,2 54186  53.2172 221.5079 0001855 116.1652 243.9531 15.08863486 81738,6917.809,95.436,540.957,538.39,0.0
54186.0,STARLINK-5194,PAYLOAD,2024-04-16 14:29:39,15.08867421,0.0001311,53.2159,221.2112,88.0823,272.032,0.00039042,5.936e-05,0.0,0 STARLINK-5194,1 54186U 22141AF  24107.60392779  .00005936  00000-0  39042-3 0  9995,2 54186  53.2159 221.2112 0001311  88.0823 272.0320 15.08867421 81510,6917.797,95.436,540.568,538.755,0.0
54186.0,STARLINK-5194,PAYLOAD,2024-04-17 12:45:03,15.08850374,0.0001332,53.216,217.0459,85.0389,275.0755,0.0001453,2.026e-05,0.0,0 STARLINK-5194,1 54186U 22141AF  24108.53129141  .00002026  00000-0  14530-3 0  9991,2 54186  53.2160 217.0459 0001332  85.0389 275.0755 15.08850374 81880,6917.849,95.437,540.635,538.792,0.0
54186.0,STARLINK-5194,PAYLOAD,2024-04-17 14:20:26,15.08852092,0.0001365,53.2165,216.7484,86.6105,273.5044,0.00015757,2.221e-05,0.0,0 STARLINK-5194,1 54186U 22141AF  24108.59752992  .00002221  00000-0  15757-3 0  9992,2 54186  53.2165 216.7484 0001365  86.6105 273.5044 15.08852092 81667,6917.843,95.437,540.653,538.764,0.0
54186.0,STARLINK-5194,PAYLOAD,2024-04-18 12:35:51,15.08837257,0.0002374,53.2169,212.5877,47.1585,312.9606,-0.00016784,-2.958e-05,0.0,0 STARLINK-5194,1 54186U 22141AF  24109.52490232 -.00002958  00000-0 -16784-3 0  9992,2 54186  53.2169 212.5877 0002374  47.1585 312.9606 15.08837257 82036,6917.889,95.438,541.396,538.111,0.0
54186.0,STARLINK-5194,PAYLOAD,2024-04-18 14:11:13,15.0885425,0.0001318,53.2156,212.2903,83.1496,276.9646,2.6743e-05,1.38e-06,0.0,0 STARLINK-5194,1 54186U 22141AF  24109.59113077  .00000138  00000-0  26743-4 0  9991,2 54186  53.2156 212.2903 0001318  83.1496 276.9646 15.08854250 81817,6917.837,95.437,540.614,538.79,0.0
54186.0,STARLINK-5194,PAYLOAD,2024-04-19 12:26:38,15.08838838,0.0001872,53.2174,208.1258,64.9608,295.1578,6.6865e-05,7.76e-06,0.0,0 STARLINK-5194,1 54186U 22141AF  24110.51850010  .00000776  00000-0  66865-4 0  9997,2 54186  53.2174 208.1258 0001872  64.9608 295.1578 15.08838838 82183,6917.884,95.438,541.044,538.454,0.0
54186.0,STARLINK-5194,PAYLOAD,2024-04-19 14:02:00,15.08855043,0.0001528,53.2174,207.8283,89.6603,270.4564,0.000304,4.555e-05,0.0,0 STARLINK-5194,1 54186U 22141AF  24110.58473186  .00004555  00000-0  30400-3 0  9993,2 54186  53.2174 207.8283 0001528  89.6603 270.4564 15.08855043 81967,6917.834,95.437,540.756,538.642,0.0
54186.0,STARLINK-5194,PAYLOAD,2024-04-20 12:17:25,15.08850175,0.0001871,53.2167,203.6694,73.21,286.9098,0.00010618,1.403e-05,0.0,0 STARLINK-5194,1 54186U 22141AF  24111.51209545  .00001403  00000-0  10618-3 0  9991,2 54186  53.2167 203.6694 0001871  73.2100 286.9098 15.08850175 82338,6917.849,95.437,541.009,538.42,0.0
54186.0,STARLINK-5194,PAYLOAD,2024-04-20 13:52:47,15.0886503,0.0001998,53.2177,203.367,58.588,301.5307,0.00039062,5.938e-05,0.0,0 STARLINK-5194,1 54186U 22141AF  24111.57833047  .00005938  00000-0  39062-3 0  9998,2 54186  53.2177 203.3670 0001998  58.5880 301.5307 15.08865030 82110,6917.804,95.436,541.051,538.287,0.0
54186.0,STARLINK-5194,PAYLOAD,2024-04-21 12:08:13,15.08825972,0.0001673,53.2177,199.2055,93.0263,267.092,-0.00025149,-4.287e-05,0.0,0 STARLINK-5194,1 54186U 22141AF  24112.50571398 -.00004287  00000-0 -25149-3 0  9999,2 54186  53.2177 199.2055 0001673  93.0263 267.0920 15.08825972 82252,6917.923,95.438,540.946,538.631,0.0
54186.0,STARLINK-5194,PAYLOAD,2024-04-21 15:18:59,15.08829421,0.0001592,53.2176,198.6082,94.5883,265.5291,-0.00017134,-3.013e-05,0.0,0 STARLINK-5194,1 54186U 22141AF  24112.63819322 -.00003013  00000-0 -17134-3 0  9996,2 54186  53.2176 198.6082 0001592  94.5883 265.5291 15.08829421 82277,6917.913,95.438,540.879,538.676,0.0
54186.0,STARLINK-5194,PAYLOAD,2024-04-22 10:23:38,15.08832484,0.0001983,53.2183,195.0472,91.6511,268.4708,0.00018179,2.606e-05,0.0,0 STARLINK-5194,1 54186U 22141AF  24113.43308142  .00002606  00000-0  18179-3 0  9993,2 54186  53.2183 195.0472 0001983  91.6511 268.4708 15.08832484 82626,6917.903,95.438,541.14,538.397,0.0
54186.0,STARLINK-5194,PAYLOAD,2024-04-22 11:59:00,15.08843387,0.0001683,53.2178,194.7444,87.2835,272.8349,0.00031117,4.668e-05,0.0,0 STARLINK-5194,1 54186U 22141AF  24113.49931565  .00004668  00000-0  31117-3 0  9997,2 54186  53.2178 194.7444 0001683  87.2835 272.8349 15.08843387 82637,6917.87,95.437,540.899,538.571,0.0
54186.0,STARLINK-5194,PAYLOAD,2024-04-23 05:28:15,15.08841403,0.0001727,53.2176,191.473,99.9003,260.2185,0.00039491,6.003e-05,0.0,0 STARLINK-5194,1 54186U 22141AF  24114.22796189  .00006003  00000-0  39491-3 0  9998,2 54186  53.2176 191.4730 0001727  99.9003 260.2185 15.08841403 82741,6917.876,95.437,540.936,538.546,0.0
54186.0,STARLINK-5194,PAYLOAD,2024-04-23 11:49:48,15.0884853,0.0001801,53.2179,190.2866,97.6538,262.4659,0.00044858,6.86e-05,0.0,0 STARLINK-5194,1 54186U 22141AF  24114.49291873  .00006860  00000-0  44858-3 0  9991,2 54186  53.2179 190.2866 0001801  97.6538 262.4659 15.08848530 82559,6917.854,95.437,540.965,538.473,0.0
54186.0,STARLINK-5194,PAYLOAD,2024-04-24 11:40:35,15.08845552,0.0001635,53.2174,185.8277,104.0941,256.0233,6.7391e-05,7.85e-06,0.0,0 STARLINK-5194,1 54186U 22141AF  24115.48651728  .00000785  00000-0  67391-4 0  9998,2 54186  53.2174 185.8277 0001635 104.0941 256.0233 15.08845552 82936,6917.863,95.437,540.859,538.597,0.0
